STARLINK-31420          
1 59223U 24046Y   26068.47667750  .00000258  00000+0  20839-4 0  9991
2 59223  53.1591 156.5581 0001393  29.2244 330.8835 15.30182009113001
TEVEL2-9                
1 63237U 25052AD  26068.70229538  .00018694  00000+0  67240-3 0  9992
2 63237  97.4057 324.3929 0007990 124.2475 235.9522 15.28633834 54816
